NORAD_CAT_ID,OBJECT_NAME,OBJECT_TYPE,EPOCH,MEAN_MOTION,ECCENTRICITY,INCLINATION,RA_OF_ASC_NODE,ARG_OF_PERICENTER,MEAN_ANOMALY,BSTAR,MEAN_MOTION_DOT,MEAN_MOTION_DDOT,TLE_LINE0,TLE_LINE1,TLE_LINE2,SEMIMAJOR_AXIS,PERIOD,APOGEE,PERIGEE,DECAYED
49730.0,STARLINK-3249,PAYLOAD,2023-11-19 08:21:10,15.08837773,0.0001609,53.2174,336.2467,110.1044,250.0121,7.2253e-05,8.62e-06,0.0,0 STARLINK-3249,1 49730U 21115G   23323.34804285  .00000862  00000-0  72253-4 0  9999,2 49730  53.2174 336.2467 0001609 110.1044 250.0121 15.08837773108374,6917.887,95.438,540.865,538.639,0.0
49730.0,STARLINK-3249,PAYLOAD,2023-11-19 17:53:29,15.08838369,0.0001458,53.2176,334.4627,95.0105,265.1053,7.0552e-05,8.35e-06,0.0,0 STARLINK-3249,1 49730U 21115G   23323.74548383  .00000835  00000-0  70552-4 0  9997,2 49730  53.2176 334.4627 0001458  95.0105 265.1053 15.08838369108435,6917.885,95.438,540.759,538.742,0.0
49730.0,STARLINK-3249,PAYLOAD,2023-11-20 08:11:57,15.08848577,0.0001504,53.2175,331.7869,89.9763,270.1401,8.503e-06,-1.53e-06,0.0,0 STARLINK-3249,1 49730U 21115G   23324.34164038 -.00000153  00000-0  85030-5 0  9997,2 49730  53.2175 331.7869 0001504  89.9763 270.1401 15.08848577109634,6917.854,95.437,540.76,538.679,0.0
49730.0,STARLINK-3249,PAYLOAD,2023-11-21 00:05:49,15.08840638,0.0001372,53.2168,328.8123,88.9905,271.1245,9.8413e-05,1.279e-05,0.0,0 STARLINK-3249,1 49730U 21115G   23325.00404268  .00001279  00000-0  98413-4 0  9990,2 49730  53.2168 328.8123 0001372  88.9905 271.1245 15.08840638109734,6917.878,95.438,540.693,538.794,0.0
49730.0,STARLINK-3249,PAYLOAD,2023-11-21 08:02:44,15.08848552,0.0001439,53.217,327.3258,94.2526,265.863,0.00011722,1.579e-05,0.0,0 STARLINK-3249,1 49730U 21115G   23325.33523699  .00001579  00000-0  11722-3 0  9996,2 49730  53.2170 327.3258 0001439  94.2526 265.8630 15.08848552109789,6917.854,95.437,540.715,538.724,0.0
49730.0,STARLINK-3249,PAYLOAD,2023-11-21 22:21:13,15.08841524,0.0001424,53.2176,324.6487,88.5822,271.5333,7.1437e-05,8.49e-06,0.0,0 STARLINK-3249,1 49730U 21115G   23325.93140216  .00000849  00000-0  71437-4 0  9991,2 49730  53.2176 324.6487 0001424  88.5822 271.5333 15.08841524109874,6917.876,95.437,540.726,538.756,0.0
49730.0,STARLINK-3249,PAYLOAD,2023-11-22 06:18:08,15.08849325,0.0001635,53.217,323.1606,114.1811,245.9352,9.6691e-05,1.252e-05,0.0,0 STARLINK-3249,1 49730U 21115G   23326.26259503  .00001252  00000-0  96691-4 0  9996,2 49730  53.2170 323.1606 0001635 114.1811 245.9352 15.08849325109922,6917.852,95.437,540.848,538.586,0.0
49730.0,STARLINK-3249,PAYLOAD,2023-11-23 02:58:09,15.08846807,0.000159,53.2161,319.2949,110.9286,249.1877,4.1299e-05,3.69e-06,0.0,0 STARLINK-3249,1 49730U 21115G   23327.12371545  .00000369  00000-0  41299-4 0  9995,2 49730  53.2161 319.2949 0001590 110.9286 249.1877 15.08846807110054,6917.86,95.437,540.825,538.625,0.0
49730.0,STARLINK-3249,PAYLOAD,2023-11-23 09:19:41,15.08846182,0.0001676,53.2165,318.1014,115.1481,244.9685,0.00018935,2.727e-05,0.0,0 STARLINK-3249,1 49730U 21115G   23327.38867149  .00002727  00000-0  18935-3 0  9993,2 49730  53.2165 318.1014 0001676 115.1481 244.9685 15.08846182108983,6917.861,95.437,540.886,538.567,0.0
49730.0,STARLINK-3249,PAYLOAD,2023-11-24 02:48:57,15.08825407,0.0001562,53.2153,314.8339,98.4026,261.7143,-0.00015917,-2.819e-05,0.0,0 STARLINK-3249,1 49730U 21115G   23328.11732958 -.00002819  00000-0 -15917-3 0  9995,2 49730  53.2153 314.8339 0001562  98.4026 261.7143 15.08825407110206,6917.925,95.438,540.871,538.709,0.0
49730.0,STARLINK-3249,PAYLOAD,2023-11-24 09:10:29,15.08827385,0.000157,53.2156,313.6431,92.0406,268.0766,-9.7138e-05,-1.833e-05,0.0,0 STARLINK-3249,1 49730U 21115G   23328.38229104 -.00001833  00000-0 -97138-4 0  9999,2 49730  53.2156 313.6431 0001570  92.0406 268.0766 15.08827385109138,6917.919,95.438,540.87,538.698,0.0
49730.0,STARLINK-3249,PAYLOAD,2023-11-25 02:39:44,15.08841449,0.0001541,53.2161,310.3738,91.282,268.8349,9.8855e-05,1.286e-05,0.0,0 STARLINK-3249,1 49730U 21115G   23329.11092719  .00001286  00000-0  98855-4 0  9998,2 49730  53.2161 310.3738 0001541  91.2820 268.8349 15.08841449110355,6917.876,95.437,540.807,538.675,0.0
49730.0,STARLINK-3249,PAYLOAD,2023-11-25 05:50:29,15.08847116,0.0001823,53.2168,309.7764,106.3179,253.8014,0.0001827,2.621e-05,0.0,0 STARLINK-3249,1 49730U 21115G   23329.24340255  .00002621  00000-0  18270-3 0  9999,2 49730  53.2168 309.7764 0001823 106.3179 253.8014 15.08847116109269,6917.859,95.437,540.985,538.463,0.0
49730.0,STARLINK-3249,PAYLOAD,2023-11-25 21:44:21,15.08847039,0.0001709,53.2165,306.8089,88.8096,271.3092,0.00039606,6.022e-05,0.0,0 STARLINK-3249,1 49730U 21115G   23329.90580588  .00006022  00000-0  39606-3 0  9992,2 49730  53.2165 306.8089 0001709  88.8096 271.3092 15.08847039109365,6917.859,95.437,540.906,538.542,0.0
49730.0,STARLINK-3249,PAYLOAD,2023-11-26 04:05:53,15.08860521,0.0001674,53.2159,305.6155,109.6442,250.473,0.00053589,8.256e-05,0.0,0 STARLINK-3249,1 49730U 21115G   23330.17075867  .00008256  00000-0  53589-3 0  9999,2 49730  53.2159 305.6155 0001674 109.6442 250.4730 15.08860521109400,6917.818,95.436,540.841,538.525,0.0
49730.0,STARLINK-3249,PAYLOAD,2023-11-27 03:56:42,15.08809467,0.0001794,53.2166,301.156,75.5857,284.5334,-0.00048536,-7.998e-05,0.0,0 STARLINK-3249,1 49730U 21115G   23331.16438655 -.00007998  00000-0 -48536-3 0  9997,2 49730  53.2166 301.1560 0001794  75.5857 284.5334 15.08809467110663,6917.974,95.439,541.08,538.598,0.0
49730.0,STARLINK-3249,PAYLOAD,2023-11-27 07:07:29,15.08812481,0.0001824,53.2168,300.5554,95.2356,264.8844,-0.00043188,-7.15e-05,0.0,0 STARLINK-3249,1 49730U 21115G   23331.29686719 -.00007150  00000-0 -43188-3 0  9995,2 49730  53.2168 300.5554 0001824  95.2356 264.8844 15.08812481109573,6917.965,95.439,541.091,538.568,0.0
49730.0,STARLINK-3249,PAYLOAD,2023-11-28 02:12:06,15.08830225,0.0001803,53.218,296.9927,60.9084,299.2088,-8.0309e-05,-1.566e-05,0.0,0 STARLINK-3249,1 49730U 21115G   23332.09174603 -.00001566  00000-0 -80309-4 0  9990,2 49730  53.2180 296.9927 0001803  60.9084 299.2088 15.08830225110809,6917.91,95.438,541.023,538.528,0.0
49730.0,STARLINK-3249,PAYLOAD,2023-11-28 06:58:15,15.08852575,0.0001779,53.2174,296.098,88.8096,271.31,0.00021821,3.188e-05,0.0,0 STARLINK-3249,1 49730U 21115G   23332.29045386  .00003188  00000-0  21821-3 0  9990,2 49730  53.2174 296.0980 0001779  88.8096 271.3100 15.08852575110837,6917.842,95.437,540.938,538.476,0.0
49730.0,STARLINK-3249,PAYLOAD,2023-11-29 03:38:16,15.08841876,0.0002101,53.218,292.2295,86.8509,273.2724,0.00044876,6.862e-05,0.0,0 STARLINK-3249,1 49730U 21115G   23333.15158315  .00006862  00000-0  44876-3 0  9990,2 49730  53.2180 292.2295 0002101  86.8509 273.2724 15.08841876110967,6917.875,95.437,541.193,538.286,0.0
49730.0,STARLINK-3249,PAYLOAD,2023-11-29 05:13:40,15.08845117,0.0002355,53.2187,291.9367,62.6045,297.5187,0.0005485,8.453e-05,0.0,0 STARLINK-3249,1 49730U 21115G   23333.21782473  .00008453  00000-0  54850-3 0  9996,2 49730  53.2187 291.9367 0002355  62.6045 297.5187 15.08845117109869,6917.865,95.437,541.359,538.101,0.0
49730.0,STARLINK-3249,PAYLOAD,2023-12-01 03:19:50,15.08841858,0.0001819,53.2174,283.3144,96.5455,263.5744,-0.00015907,-2.819e-05,0.0,0 STARLINK-3249,1 49730U 21115G   23335.13877821 -.00002819  00000-0 -15907-3 0  9993,2 49730  53.2174 283.3144 0001819  96.5455 263.5744 15.08841858111265,6917.875,95.437,540.998,538.481,0.0
49730.0,STARLINK-3249,PAYLOAD,2023-12-01 06:30:36,15.08842869,0.0001927,53.2181,282.7145,93.5527,266.5686,-9.1006e-05,-1.736e-05,0.0,0 STARLINK-3249,1 49730U 21115G   23335.27125837 -.00001736  00000-0 -91006-4 0  9993,2 49730  53.2181 282.7145 0001927  93.5527 266.5686 15.08842869110174,6917.872,95.437,541.07,538.404,0.0
49730.0,STARLINK-3249,PAYLOAD,2023-12-01 23:59:50,15.08868311,0.0001573,53.2169,279.4466,82.1308,277.9863,-0.00014458,-2.59e-05,0.0,0 STARLINK-3249,1 49730U 21115G   23335.99988573 -.00002590  00000-0 -14458-3 0  9990,2 49730  53.2169 279.4466 0001573  82.1308 277.9863 15.08868311111395,6917.794,95.436,540.747,538.571,0.0
49730.0,STARLINK-3249,PAYLOAD,2023-12-02 01:35:13,15.08864795,0.0002098,53.2168,279.1445,94.9142,265.209,0.00029754,4.454e-05,0.0,0 STARLINK-3249,1 49730U 21115G   23336.06612470  .00004454  00000-0  29754-3 0  9993,2 49730  53.2168 279.1445 0002098  94.9142 265.2090 15.08864795110290,6917.805,95.436,541.121,538.218,0.0
49730.0,STARLINK-3249,PAYLOAD,2023-12-03 03:01:24,15.08829447,0.0001534,53.216,274.3917,114.3225,245.7927,-0.00021162,-3.653e-05,0.0,0 STARLINK-3249,1 49730U 21115G   23337.12598043 -.00003653  00000-0 -21162-3 0  9997,2 49730  53.2160 274.3917 0001534 114.3225 245.7927 15.08829447111564,6917.913,95.438,540.839,538.716,0.0
49730.0,STARLINK-3249,PAYLOAD,2023-12-04 02:52:11,15.08842835,0.0002028,53.2167,269.9319,124.5645,235.5539,-0.00011153,-2.063e-05,0.0,0 STARLINK-3249,1 49730U 21115G   23338.11957651 -.00002063  00000-0 -11153-3 0  9994,2 49730  53.2167 269.9319 0002028 124.5645 235.5539 15.08842835111714,6917.872,95.437,541.14,538.334,0.0
49730.0,STARLINK-3249,PAYLOAD,2023-12-04 06:02:57,15.08847664,0.0001994,53.216,269.3372,128.8866,231.2304,-8.9918e-05,-1.719e-05,0.0,0 STARLINK-3249,1 49730U 21115G   23338.25205684 -.00001719  00000-0 -89918-4 0  9993,2 49730  53.2160 269.3372 0001994 128.8866 231.2304 15.08847664110620,6917.857,95.437,541.101,538.343,0.0
49730.0,STARLINK-3249,PAYLOAD,2023-12-05 04:18:21,15.08847554,0.0001908,53.2159,265.1727,129.9515,230.1645,0.0003626,5.489e-05,0.0,0 STARLINK-3249,1 49730U 21115G   23339.17942065  .00005489  00000-0  36260-3 0  9993,2 49730  53.2159 265.1727 0001908 129.9515 230.1645 15.08847554111876,6917.857,95.437,541.042,538.402,0.0
49730.0,STARLINK-3249,PAYLOAD,2023-12-06 00:58:22,15.08843506,0.0001909,53.2153,261.3069,129.7392,230.3768,3.9203e-05,3.36e-06,0.0,0 STARLINK-3249,1 49730U 21115G   23340.04054068  .00000336  00000-0  39203-4 0  9995,2 49730  53.2153 261.3069 0001909 129.7392 230.3768 15.08843506112006,6917.87,95.437,541.055,538.414,0.0
